[{"OBJECT_NAME":"OBJECT AL","OBJECT_ID":"2023-085AL","EPOCH":"2026-03-09T22:26:04.970400","MEAN_MOTION":15.31857284,"ECCENTRICITY":0.000802,"INCLINATION":97.4839,"RA_OF_ASC_NODE":180.0127,"ARG_OF_PERICENTER":78.7242,"MEAN_ANOMALY":281.49,"EPHEMERIS_TYPE":0,"CLASSIFICATION_TYPE":"U","NORAD_CAT_ID":57038,"ELEMENT_SET_NO":999,"REV_AT_EPOCH":15154,"BSTAR":0.0006591637,"MEAN_MOTION_DOT":0.00020246,"MEAN_MOTION_DDOT":0},{"OBJECT_NAME":"STARLINK-34307","OBJECT_ID":"2025-133T","EPOCH":"2026-03-09T12:54:58.053888","MEAN_MOTION":15.30198679,"ECCENTRICITY":0.00011917,"INCLINATION":53.1581,"RA_OF_ASC_NODE":117.6085,"ARG_OF_PERICENTER":76.4205,"MEAN_ANOMALY":283.6928,"EPHEMERIS_TYPE":0,"CLASSIFICATION_TYPE":"U","NORAD_CAT_ID":64489,"ELEMENT_SET_NO":999,"REV_AT_EPOCH":4114,"BSTAR":0.00096344423,"MEAN_MOTION_DOT":0.00028283,"MEAN_MOTION_DDOT":0}]
